[{"OBJECT_NAME":"STARLINK-34058","OBJECT_ID":"2025-092Q","EPOCH":"2025-09-05T02:10:24.282048","MEAN_MOTION":15.2757713,"ECCENTRICITY":0.00014704,"INCLINATION":43.0045,"RA_OF_ASC_NODE":140.3654,"ARG_OF_PERICENTER":279.3187,"MEAN_ANOMALY":80.7498,"EPHEMERIS_TYPE":0,"CLASSIFICATION_TYPE":"U","NORAD_CAT_ID":63818,"ELEMENT_SET_NO":999,"REV_AT_EPOCH":2028,"BSTAR":0.0012828003,"MEAN_MOTION_DOT":0.00035203,"MEAN_MOTION_DDOT":0},{"OBJECT_NAME":"STARLINK-34055","OBJECT_ID":"2025-092R","EPOCH":"2025-09-05T01:42:51.177888","MEAN_MOTION":15.275842,"ECCENTRICITY":0.00019817,"INCLINATION":43.0019,"RA_OF_ASC_NODE":141.0661,"ARG_OF_PERICENTER":270.8706,"MEAN_ANOMALY":89.1918,"EPHEMERIS_TYPE":0,"CLASSIFICATION_TYPE":"U","NORAD_CAT_ID":63819,"ELEMENT_SET_NO":999,"REV_AT_EPOCH":2022,"BSTAR":0.001505517,"MEAN_MOTION_DOT":0.00041405,"MEAN_MOTION_DDOT":0},{"OBJECT_NAME":"STARLINK-33794","OBJECT_ID":"2025-092S","EPOCH":"2025-09-05T01:33:36.222912","MEAN_MOTION":15.27591758,"ECCENTRICITY":0.00016036,"INCLINATION":43.0016,"RA_OF_ASC_NODE":141.0373,"ARG_OF_PERICENTER":274.1562,"MEAN_ANOMALY":85.9107,"EPHEMERIS_TYPE":0,"CLASSIFICATION_TYPE":"U","NORAD_CAT_ID":63820,"ELEMENT_SET_NO":999,"REV_AT_EPOCH":2022,"BSTAR":0.0013473311,"MEAN_MOTION_DOT":0.00037013,"MEAN_MOTION_DDOT":0},{"OBJECT_NAME":"STARLINK-34047","OBJECT_ID":"2025-092T","EPOCH":"2025-09-04T00:21:32.222592","MEAN_MOTION":15.27575686,"ECCENTRICITY":0.00015478,"INCLINATION":43.0005,"RA_OF_ASC_NODE":146.9149,"ARG_OF_PERICENTER":269.376,"MEAN_ANOMALY":90.6914,"EPHEMERIS_TYPE":0,"CLASSIFICATION_TYPE":"U","NORAD_CAT_ID":63821,"ELEMENT_SET_NO":999,"REV_AT_EPOCH":2011,"BSTAR":0.0012573338,"MEAN_MOTION_DOT":0.00034495,"MEAN_MOTION_DDOT":0},{"OBJECT_NAME":"STARLINK-34094","OBJECT_ID":"2025-092U","EPOCH":"2025-09-04T10:01:58.539360","MEAN_MOTION":15.27599629,"ECCENTRICITY":0.0001162,"INCLINATION":42.9974,"RA_OF_ASC_NODE":141.2891,"ARG_OF_PERICENTER":283.6287,"MEAN_ANOMALY":76.4435,"EPHEMERIS_TYPE":0,"CLASSIFICATION_TYPE":"U","NORAD_CAT_ID":63822,"ELEMENT_SET_NO":999,"REV_AT_EPOCH":2021,"BSTAR":0.0011562389,"MEAN_MOTION_DOT":0.00031711,"MEAN_MOTION_DDOT":0},{"OBJECT_NAME":"STARLINK-34043","OBJECT_ID":"2025-092V","EPOCH":"2025-09-04T10:05:27.763008","MEAN_MOTION":15.27572557,"ECCENTRICITY":0.00020314,"INCLINATION":43.0012,"RA_OF_ASC_NODE":140.4419,"ARG_OF_PERICENTER":267.1789,"MEAN_ANOMALY":92.883,"EPHEMERIS_TYPE":0,"CLASSIFICATION_TYPE":"U","NORAD_CAT_ID":63823,"ELEMENT_SET_NO":999,"REV_AT_EPOCH":2017,"BSTAR":0.001254463,"MEAN_MOTION_DOT":0.00034412,"MEAN_MOTION_DDOT":0},{"OBJECT_NAME":"STARLINK-34025","OBJECT_ID":"2025-092W","EPOCH":"2025-09-04T10:26:58.861536","MEAN_MOTION":15.27546425,"ECCENTRICITY":4.807e-5,"INCLINATION":43.0035,"RA_OF_ASC_NODE":144.0524,"ARG_OF_PERICENTER":304.5565,"MEAN_ANOMALY":55.5242,"EPHEMERIS_TYPE":0,"CLASSIFICATION_TYPE":"U","NORAD_CAT_ID":63824,"ELEMENT_SET_NO":999,"REV_AT_EPOCH":2007,"BSTAR":0.0012378559,"MEAN_MOTION_DOT":0.00033923,"MEAN_MOTION_DDOT":0},{"OBJECT_NAME":"STARLINK-33874","OBJECT_ID":"2025-092X","EPOCH":"2025-09-04T09:39:04.561632","MEAN_MOTION":15.27556817,"ECCENTRICITY":0.00017748,"INCLINATION":42.9996,"RA_OF_ASC_NODE":144.6584,"ARG_OF_PERICENTER":261.3367,"MEAN_ANOMALY":98.7284,"EPHEMERIS_TYPE":0,"CLASSIFICATION_TYPE":"U","NORAD_CAT_ID":63825,"ELEMENT_SET_NO":999,"REV_AT_EPOCH":2017,"BSTAR":0.0013825442,"MEAN_MOTION_DOT":0.00037952,"MEAN_MOTION_DDOT":0},{"OBJECT_NAME":"STARLINK-33781","OBJECT_ID":"2025-092Y","EPOCH":"2025-09-04T22:38:13.042464","MEAN_MOTION":15.27590755,"ECCENTRICITY":0.00021804,"INCLINATION":43.0053,"RA_OF_ASC_NODE":141.8431,"ARG_OF_PERICENTER":254.6452,"MEAN_ANOMALY":105.4159,"EPHEMERIS_TYPE":0,"CLASSIFICATION_TYPE":"U","NORAD_CAT_ID":63826,"ELEMENT_SET_NO":999,"REV_AT_EPOCH":2025,"BSTAR":0.0018258948,"MEAN_MOTION_DOT":0.00050344,"MEAN_MOTION_DDOT":0},{"OBJECT_NAME":"STARLINK-33891","OBJECT_ID":"2025-092Z","EPOCH":"2025-09-05T01:55:47.468928","MEAN_MOTION":15.27595869,"ECCENTRICITY":0.00041123,"INCLINATION":43.0021,"RA_OF_ASC_NODE":141.1438,"ARG_OF_PERICENTER":248.0268,"MEAN_ANOMALY":112.0147,"EPHEMERIS_TYPE":0,"CLASSIFICATION_TYPE":"U","NORAD_CAT_ID":63827,"ELEMENT_SET_NO":999,"REV_AT_EPOCH":2016,"BSTAR":0.0014196315,"MEAN_MOTION_DOT":0.00039036,"MEAN_MOTION_DDOT":0},{"OBJECT_NAME":"STARLINK-33903","OBJECT_ID":"2025-092AA","EPOCH":"2025-09-05T01:13:14.782656","MEAN_MOTION":15.27609959,"ECCENTRICITY":0.00024674,"INCLINATION":43.0007,"RA_OF_ASC_NODE":140.9203,"ARG_OF_PERICENTER":276.5851,"MEAN_ANOMALY":83.472,"EPHEMERIS_TYPE":0,"CLASSIFICATION_TYPE":"U","NORAD_CAT_ID":63828,"ELEMENT_SET_NO":999,"REV_AT_EPOCH":2027,"BSTAR":0.0018249592,"MEAN_MOTION_DOT":0.00050348,"MEAN_MOTION_DDOT":0},{"OBJECT_NAME":"STARLINK-33889","OBJECT_ID":"2025-092AB","EPOCH":"2025-09-03T23:46:22.954944","MEAN_MOTION":15.27576209,"ECCENTRICITY":7.284e-5,"INCLINATION":43.002,"RA_OF_ASC_NODE":146.7336,"ARG_OF_PERICENTER":295.5075,"MEAN_ANOMALY":64.5701,"EPHEMERIS_TYPE":0,"CLASSIFICATION_TYPE":"U","NORAD_CAT_ID":63829,"ELEMENT_SET_NO":999,"REV_AT_EPOCH":2000,"BSTAR":0.0012143321,"MEAN_MOTION_DOT":0.00033301,"MEAN_MOTION_DDOT":0},{"OBJECT_NAME":"STARLINK-33984","OBJECT_ID":"2025-092AC","EPOCH":"2025-09-05T01:03:59.973696","MEAN_MOTION":15.27578351,"ECCENTRICITY":0.00020534,"INCLINATION":42.997,"RA_OF_ASC_NODE":140.8683,"ARG_OF_PERICENTER":252.9952,"MEAN_ANOMALY":107.0674,"EPHEMERIS_TYPE":0,"CLASSIFICATION_TYPE":"U","NORAD_CAT_ID":63830,"ELEMENT_SET_NO":999,"REV_AT_EPOCH":2022,"BSTAR":0.0011565807,"MEAN_MOTION_DOT":0.00031701,"MEAN_MOTION_DDOT":0},{"OBJECT_NAME":"STARLINK-33940","OBJECT_ID":"2025-092AD","EPOCH":"2025-09-05T01:18:48.162240","MEAN_MOTION":15.27561014,"ECCENTRICITY":0.00018861,"INCLINATION":43.0008,"RA_OF_ASC_NODE":140.9583,"ARG_OF_PERICENTER":287.6325,"MEAN_ANOMALY":72.4321,"EPHEMERIS_TYPE":0,"CLASSIFICATION_TYPE":"U","NORAD_CAT_ID":63831,"ELEMENT_SET_NO":999,"REV_AT_EPOCH":2027,"BSTAR":0.0010951746,"MEAN_MOTION_DOT":0.0002998,"MEAN_MOTION_DDOT":0},{"OBJECT_NAME":"STARLINK-33978","OBJECT_ID":"2025-092AE","EPOCH":"2025-09-04T23:22:26.707872","MEAN_MOTION":15.27589496,"ECCENTRICITY":0.00015986,"INCLINATION":43.0011,"RA_OF_ASC_NODE":141.2137,"ARG_OF_PERICENTER":250.4223,"MEAN_ANOMALY":109.6456,"EPHEMERIS_TYPE":0,"CLASSIFICATION_TYPE":"U","NORAD_CAT_ID":63832,"ELEMENT_SET_NO":999,"REV_AT_EPOCH":2026,"BSTAR":0.0016396593,"MEAN_MOTION_DOT":0.00045148,"MEAN_MOTION_DDOT":0},{"OBJECT_NAME":"STARLINK-34018","OBJECT_ID":"2025-093A","EPOCH":"2025-09-05T03:24:41.768640","MEAN_MOTION":15.2758009,"ECCENTRICITY":0.00015571,"INCLINATION":43.0023,"RA_OF_ASC_NODE":45.9049,"ARG_OF_PERICENTER":285.69,"MEAN_ANOMALY":74.378,"EPHEMERIS_TYPE":0,"CLASSIFICATION_TYPE":"U","NORAD_CAT_ID":63836,"ELEMENT_SET_NO":999,"REV_AT_EPOCH":1959,"BSTAR":0.001278904,"MEAN_MOTION_DOT":0.00035098,"MEAN_MOTION_DDOT":0}]
