STARLINK-34058          
1 63818U 25092Q   25248.09055882  .00035203  00000+0  12828-2 0  9997
2 63818  43.0045 140.3654 0001470 279.3187  80.7498 15.27577130 20282
STARLINK-34055          
1 63819U 25092R   25248.07142567  .00041405  00000+0  15055-2 0  9999
2 63819  43.0019 141.0661 0001981 270.8706  89.1918 15.27584200 20220
STARLINK-33794          
1 63820U 25092S   25248.06500258  .00037013  00000+0  13473-2 0  9997
2 63820  43.0016 141.0373 0001603 274.1562  85.9107 15.27591758 20227
STARLINK-34047          
1 63821U 25092T   25247.01495628  .00034495  00000+0  12573-2 0  9997
2 63821  43.0005 146.9149 0001547 269.3760  90.6914 15.27575686 20113
STARLINK-34094          
1 63822U 25092U   25247.41803865  .00031711  00000+0  11562-2 0  9993
2 63822  42.9974 141.2891 0001162 283.6287  76.4435 15.27599629 20219
STARLINK-34043          
1 63823U 25092V   25247.42046022  .00034412  00000+0  12545-2 0  9992
2 63823  43.0012 140.4419 0002031 267.1789  92.8830 15.27572557 20179
STARLINK-34025          
1 63824U 25092W   25247.43540349  .00033923  00000+0  12379-2 0  9996
2 63824  43.0035 144.0524 0000480 304.5565  55.5242 15.27546425 20073
STARLINK-33874          
1 63825U 25092X   25247.40213613  .00037952  00000+0  13825-2 0  9998
2 63825  42.9996 144.6584 0001774 261.3367  98.7284 15.27556817 20179
STARLINK-33781          
1 63826U 25092Y   25247.94320651  .00050344  00000+0  18259-2 0  9995
2 63826  43.0053 141.8431 0002180 254.6452 105.4159 15.27590755 20253
STARLINK-33891          
1 63827U 25092Z   25248.08041052  .00039036  00000+0  14196-2 0  9998
2 63827  43.0021 141.1438 0004112 248.0268 112.0147 15.27595869 20160
STARLINK-33903          
1 63828U 25092AA  25248.05086554  .00050348  00000+0  18250-2 0  9996
2 63828  43.0007 140.9203 0002467 276.5851  83.4720 15.27609959 20273
STARLINK-33889          
1 63829U 25092AB  25246.99054346  .00033301  00000+0  12143-2 0  9997
2 63829  43.0020 146.7336 0000728 295.5075  64.5701 15.27576209 20008
STARLINK-33984          
1 63830U 25092AC  25248.04444414  .00031701  00000+0  11566-2 0  9996
2 63830  42.9970 140.8683 0002053 252.9952 107.0674 15.27578351 20222
STARLINK-33940          
1 63831U 25092AD  25248.05472410  .00029980  00000+0  10952-2 0  9999
2 63831  43.0008 140.9583 0001886 287.6325  72.4321 15.27561014 20276
STARLINK-33978          
1 63832U 25092AE  25247.97392023  .00045148  00000+0  16397-2 0  9994
2 63832  43.0011 141.2137 0001598 250.4223 109.6456 15.27589496 20260
STARLINK-34018          
1 63836U 25093A   25248.14215010  .00035098  00000+0  12789-2 0  9993
2 63836  43.0023  45.9049 0001557 285.6900  74.3780 15.27580090 19599
